     2              NAVIGATION DATA                         RINEX VERSION / TYPE
CCRINEXN V1.6.0 UX  CDDIS               29-APR-21 19:31     PGM / RUN BY / DATE 
IGS BROADCAST EPHEMERIS FILE                                COMMENT             
    0.9313D-08  0.1490D-07 -0.5960D-07 -0.1192D-06          ION ALPHA           
    0.8806D+05  0.4915D+05 -0.1311D+06 -0.3277D+06          ION BETA            
   -0.279396772385D-08-0.266453525910D-14   503808     2155 DELTA-UTC: A0,A1,T,W
    18                                                      LEAP SECONDS        
                                                            END OF HEADER       
20 21  4 28 20  0  0.0 0.522716436535D-03-0.341060513165D-12 0.000000000000D+00
    0.980000000000D+02 0.283125000000D+02 0.518628745826D-08 0.100861002107D+01
    0.150501728058D-05 0.605337729212D-02 0.916421413422D-05 0.515170332527D+04
    0.331200000000D+06 0.856816768646D-07-0.204430821595D+01 0.167638063431D-06
    0.937641081109D+00 0.189656250000D+03 0.302818496632D+01-0.831356057888D-08
    0.555023118941D-09 0.100000000000D+01 0.215500000000D+04 0.000000000000D+00
    0.200000000000D+01 0.000000000000D+00-0.838190317154D-08 0.980000000000D+02
    0.327168000000D+06 0.400000000000D+01 0.000000000000D+00 0.000000000000D+00
21 21  4 28 20  0  0.0 0.114378985018D-03 0.272848410532D-11 0.000000000000D+00
    0.970000000000D+02-0.140562500000D+03 0.417231665088D-08-0.285092153249D+01
   -0.690296292305D-05 0.241070881020D-01 0.112019479275D-04 0.515370457649D+04
    0.331200000000D+06 0.143423676491D-06-0.301979620346D+01 0.340864062309D-06
    0.957261444341D+00 0.154406250000D+03-0.114764866653D+01-0.749352642117D-08
   -0.250010413937D-11 0.100000000000D+01 0.215500000000D+04 0.000000000000D+00
    0.200000000000D+01 0.000000000000D+00-0.102445483208D-07 0.970000000000D+02
    0.324018000000D+06 0.400000000000D+01 0.000000000000D+00 0.000000000000D+00
22 21  4 28 20  0  0.0-0.627090688795D-03 0.909494701773D-11 0.000000000000D+00
    0.310000000000D+02 0.212500000000D+02 0.521021702645D-08 0.228204140517D+01
    0.116415321827D-05 0.706780888140D-02 0.872649252415D-05 0.515354661942D+04
    0.331200000000D+06 0.152736902237D-06-0.199787270769D+01 0.167638063431D-07
    0.934304397574D+00 0.193687500000D+03-0.987920607042D+00-0.818926968738D-08
    0.494663461862D-09 0.100000000000D+01 0.215500000000D+04 0.000000000000D+00
    0.200000000000D+01 0.000000000000D+00-0.176951289177D-07 0.310000000000D+02
    0.324018000000D+06 0.400000000000D+01 0.000000000000D+00 0.000000000000D+00
23 21  4 28 20  0  0.0 0.110656023025D-03-0.261479726760D-11 0.000000000000D+00
    0.590000000000D+02 0.232812500000D+02 0.465233664564D-08 0.670167826494D+00
    0.996515154839D-06 0.113314145710D-02 0.873580574989D-05 0.515364399147D+04
    0.331200000000D+06 0.372529029846D-07-0.192560069686D+01 0.391155481338D-07
    0.963596039083D+00 0.212968750000D+03 0.258311979278D+01-0.803033449567D-08
    0.543594071446D-09 0.100000000000D+01 0.215500000000D+04 0.000000000000D+00
    0.200000000000D+01 0.000000000000D+00-0.838190317154D-08 0.827000000000D+03
    0.324000000000D+06 0.000000000000D+00 0.000000000000D+00 0.000000000000D+00
25 21  4 28 20  0  0.0 0.127328559756D-03 0.716227077646D-11 0.000000000000D+00
    0.300000000000D+02 0.146593750000D+03 0.472305387701D-08-0.563877788665D+00
    0.784173607826D-05 0.992712832522D-02 0.435672700405D-05 0.515364127541D+04
    0.331200000000D+06 0.838190317154D-07 0.124024390104D+01 0.137835741043D-06
    0.961184763878D+00 0.301750000000D+03 0.964942113895D+00-0.852499795753D-08
    0.459304846176D-09 0.100000000000D+01 0.215500000000D+04 0.000000000000D+00
    0.200000000000D+01 0.000000000000D+00 0.558793544769D-08 0.300000000000D+02
    0.324018000000D+06 0.400000000000D+01 0.000000000000D+00 0.000000000000D+00
26 21  4 28 20  0  0.0 0.783642753959D-04 0.511590769747D-11 0.000000000000D+00
    0.480000000000D+02 0.160375000000D+03 0.502556647787D-08-0.126417892903D+01
    0.814534723759D-05 0.580287724733D-02 0.467710196972D-05 0.515380098534D+04
    0.331200000000D+06 0.782310962677D-07 0.119868344440D+01-0.122934579849D-06
    0.942156170026D+00 0.274625000000D+03 0.303604921747D+00-0.854035574010D-08
    0.494306304127D-09 0.100000000000D+01 0.215500000000D+04 0.000000000000D+00
    0.200000000000D+01 0.000000000000D+00 0.698491930962D-08 0.480000000000D+02
    0.324018000000D+06 0.400000000000D+01 0.000000000000D+00 0.000000000000D+00
27 21  4 28 20  0  0.0-0.120906159282D-03-0.670752342558D-11 0.000000000000D+00
    0.108000000000D+03-0.840312500000D+02 0.457626204825D-08-0.304560477161D+01
   -0.445730984211D-05 0.941757962573D-02 0.983476638794D-06 0.515368207169D+04
    0.331200000000D+06-0.115483999252D-06 0.228934356954D+01-0.126659870148D-06
    0.976018687370D+00 0.370062500000D+03 0.614280425005D+00-0.834213319762D-08
   -0.250010413937D-09 0.100000000000D+01 0.215500000000D+04 0.000000000000D+00
    0.200000000000D+01 0.000000000000D+00 0.186264514923D-08 0.108000000000D+03
    0.324018000000D+06 0.400000000000D+01 0.000000000000D+00 0.000000000000D+00
28 21  4 28 20  0  0.0 0.579637009651D-03-0.602540239925D-11 0.000000000000D+00
    0.290000000000D+02 0.124812500000D+03 0.426089176896D-08-0.237562317312D+01
    0.670924782753D-05 0.174660668708D-01 0.323168933392D-05 0.515431838799D+04
    0.331200000000D+06 0.113621354103D-06 0.133575342345D+01 0.225380063057D-06
    0.972945308609D+00 0.318718750000D+03-0.133855607166D+01-0.793175896103D-08
    0.467519474063D-09 0.100000000000D+01 0.215500000000D+04 0.000000000000D+00
    0.200000000000D+01 0.000000000000D+00-0.111758708954D-07 0.290000000000D+02
    0.324018000000D+06 0.400000000000D+01 0.000000000000D+00 0.000000000000D+00
29 21  4 28 20  0  0.0-0.338007230312D-03-0.659383658785D-11 0.000000000000D+00
    0.180000000000D+02-0.104593750000D+03 0.444125642473D-08-0.285152610971D+01
   -0.531040132046D-05 0.178289238829D-02 0.191479921341D-05 0.515364818001D+04
    0.331200000000D+06-0.875443220139D-07 0.236229573048D+01 0.912696123123D-07
    0.984092570286D+00 0.356125000000D+03 0.211437735450D+01-0.832320383771D-08
   -0.242510101519D-09 0.100000000000D+01 0.215500000000D+04 0.000000000000D+00
    0.200000000000D+01 0.000000000000D+00-0.977888703346D-08 0.180000000000D+02
    0.324018000000D+06 0.400000000000D+01 0.000000000000D+00 0.000000000000D+00
30 21  4 28 20  0  0.0-0.419090036303D-03-0.511590769747D-11 0.000000000000D+00
    0.660000000000D+02 0.489062500000D+02 0.469412410054D-08 0.342388315150D+00
    0.263191759586D-05 0.513316807337D-02 0.122059136629D-04 0.515371934891D+04
    0.331200000000D+06 0.838190317154D-07 0.220849313729D+00 0.147148966789D-06
    0.937491998053D+00 0.132218750000D+03-0.279897058022D+01-0.806676458455D-08
   -0.245367363393D-09 0.100000000000D+01 0.215500000000D+04 0.000000000000D+00
    0.200000000000D+01 0.000000000000D+00 0.372529029846D-08 0.660000000000D+02
    0.324018000000D+06 0.400000000000D+01 0.000000000000D+00 0.000000000000D+00
31 21  4 28 20  0  0.0-0.114261638373D-03-0.216004991671D-11 0.000000000000D+00
    0.950000000000D+02 0.640625000000D+02 0.424339103998D-08-0.701652288577D-01
    0.351853668690D-05 0.994433148298D-02 0.129062682390D-04 0.515378397179D+04
    0.331200000000D+06 0.135973095894D-06 0.220187951872D+00-0.111758708954D-07
    0.956596790919D+00 0.127218750000D+03 0.259039419243D+00-0.793640201157D-08
   -0.301083969927D-09 0.100000000000D+01 0.215500000000D+04 0.000000000000D+00
    0.280000000000D+01 0.000000000000D+00-0.130385160446D-07 0.950000000000D+02
    0.324018000000D+06 0.400000000000D+01 0.000000000000D+00 0.000000000000D+00
32 21  4 28 20  0  0.0 0.218986533582D-04-0.341060513165D-12 0.000000000000D+00
    0.860000000000D+02-0.291562500000D+02 0.485663086960D-08-0.229968001033D+01
   -0.144354999065D-05 0.489432504401D-02 0.603310763836D-05 0.515365317345D+04
    0.331200000000D+06-0.279396772385D-07-0.859159635493D+00-0.540167093277D-07
    0.957071676071D+00 0.261875000000D+03-0.237979882847D+01-0.806712174229D-08
   -0.360372153804D-09 0.100000000000D+01 0.215500000000D+04 0.000000000000D+00
    0.200000000000D+01 0.000000000000D+00 0.465661287308D-09 0.860000000000D+02
    0.324018000000D+06 0.400000000000D+01 0.000000000000D+00 0.000000000000D+00
 1 21  4 28 21 59 44.0 0.703811645508D-03-0.104591890704D-10 0.000000000000D+00
    0.210000000000D+02-0.136593750000D+03 0.367515308488D-08 0.212032932155D+01
   -0.711530447006D-05 0.107865808532D-01 0.120140612125D-04 0.515369649506D+04
    0.338384000000D+06-0.219792127609D-06-0.293693623818D+01-0.162050127983D-06
    0.984429187736D+00 0.162593750000D+03 0.834378212847D+00-0.753174229873D-08
    0.457161899771D-10 0.100000000000D+01 0.215500000000D+04 0.000000000000D+00
    0.200000000000D+01 0.000000000000D+00 0.512227416039D-08 0.210000000000D+02
    0.331218000000D+06 0.400000000000D+01 0.000000000000D+00 0.000000000000D+00
 7 21  4 28 21 59 44.0 0.135844107717D-03 0.111413100967D-10 0.000000000000D+00
    0.200000000000D+01 0.450312500000D+02 0.431303679815D-08 0.154366753652D+01
    0.245310366154D-05 0.147813609801D-01 0.134464353323D-04 0.515377381134D+04
    0.338384000000D+06-0.307336449623D-06 0.203202766382D+00 0.745058059692D-08
    0.952272350949D+00 0.118062500000D+03-0.233923987238D+01-0.797426073140D-08
   -0.544665544649D-09 0.100000000000D+01 0.215500000000D+04 0.000000000000D+00
    0.200000000000D+01 0.000000000000D+00-0.111758708954D-07 0.200000000000D+01
    0.332886000000D+06 0.400000000000D+01 0.000000000000D+00 0.000000000000D+00
